{
  "type": "FeatureCollection",
  "features": [
    {
      "type": "Feature",
      "properties": {
        "norad_id": 35026,
        "name": "COSMOS 2251 DEB",
        "group": "cosmos-2251-debris",
        "lat": -73.36357371803611,
        "lon": -141.98279142304077,
        "alt_km": 754.7631699848662,
        "timestamp": "2025-12-27T08:36:18.780507+00:00",
        "meta_object_name": "COSMOS 2251 DEB",
        "meta_object_id": "1993-036AGP",
        "meta_epoch": "2025-12-27T02:27:21.058848",
        "meta_mean_motion": 14.53633351,
        "meta_eccentricity": 0.0082698,
        "meta_inclination": 74.0476,
        "meta_ra_of_asc_node": 291.6889,
        "meta_arg_of_pericenter": 41.1171,
        "meta_mean_anomaly": 334.1243,
        "meta_ephemeris_type": 0,
        "meta_classification_type": "U",
        "meta_norad_cat_id": 35026,
        "meta_element_set_no": 999,
        "meta_rev_at_epoch": 88352,
        "meta_bstar": 0.00010032,
        "meta_mean_motion_dot": 4.09e-06,
        "meta_mean_motion_ddot": 0,
        "tle_line1": "1 35026U 93036AGP 25361.10232707  .00000409  00000+0  10032-3 0  9997",
        "tle_line2": "2 35026  74.0476 291.6889 0082698  41.1171 334.1243 14.53633351883527"
      },
      "geometry": {
        "type": "Point",
        "coordinates": [
          -141.98279142304077,
          -73.36357371803611
        ]
      }
    },
    {
      "type": "Feature",
      "properties": {
        "norad_id": 35028,
        "name": "COSMOS 2251 DEB",
        "group": "cosmos-2251-debris",
        "lat": -3.3308668079553008,
        "lon": 64.19475839945724,
        "alt_km": 765.284146144857,
        "timestamp": "2025-12-27T08:36:18.780518+00:00",
        "meta_object_name": "COSMOS 2251 DEB",
        "meta_object_id": "1993-036AGR",
        "meta_epoch": "2025-12-26T09:14:11.078016",
        "meta_mean_motion": 14.56582839,
        "meta_eccentricity": 0.008309,
        "meta_inclination": 74.0377,
        "meta_ra_of_asc_node": 245.0874,
        "meta_arg_of_pericenter": 15.167,
        "meta_mean_anomaly": 104.3209,
        "meta_ephemeris_type": 0,
        "meta_classification_type": "U",
        "meta_norad_cat_id": 35028,
        "meta_element_set_no": 999,
        "meta_rev_at_epoch": 88484,
        "meta_bstar": 9.0149e-05,
        "meta_mean_motion_dot": 3.89e-06,
        "meta_mean_motion_ddot": 0,
        "tle_line1": "1 35028U 93036AGR 25360.38485044  .00000389  00000+0  90149-4 0  9997",
        "tle_line2": "2 35028  74.0377 245.0874 0083090  15.1670 104.3209 14.56582839884840"
      },
      "geometry": {
        "type": "Point",
        "coordinates": [
          64.19475839945724,
          -3.3308668079553008
        ]
      }
    },
    {
      "type": "Feature",
      "properties": {
        "norad_id": 35031,
        "name": "COSMOS 2251 DEB",
        "group": "cosmos-2251-debris",
        "lat": -32.048328292108465,
        "lon": 62.65350217941094,
        "alt_km": 774.4699486424188,
        "timestamp": "2025-12-27T08:36:18.780528+00:00",
        "meta_object_name": "COSMOS 2251 DEB",
        "meta_object_id": "1993-036AGU",
        "meta_epoch": "2025-12-26T08:14:40.104672",
        "meta_mean_motion": 14.38307542,
        "meta_eccentricity": 0.0019397,
        "meta_inclination": 74.0373,
        "meta_ra_of_asc_node": 234.2004,
        "meta_arg_of_pericenter": 325.2705,
        "meta_mean_anomaly": 34.7182,
        "meta_ephemeris_type": 0,
        "meta_classification_type": "U",
        "meta_norad_cat_id": 35031,
        "meta_element_set_no": 999,
        "meta_rev_at_epoch": 65479,
        "meta_bstar": 0.0001513,
        "meta_mean_motion_dot": 4.35e-06,
        "meta_mean_motion_ddot": 0,
        "tle_line1": "1 35031U 93036AGU 25360.34351973  .00000435  00000+0  15130-3 0  9998",
        "tle_line2": "2 35031  74.0373 234.2004 0019397 325.2705  34.7182 14.38307542654799"
      },
      "geometry": {
        "type": "Point",
        "coordinates": [
          62.65350217941094,
          -32.048328292108465
        ]
      }
    },
    {
      "type": "Feature",
      "properties": {
        "norad_id": 35032,
        "name": "COSMOS 2251 DEB",
        "group": "cosmos-2251-debris",
        "lat": 68.36821708980392,
        "lon": 26.054451860012115,
        "alt_km": 707.7238664451634,
        "timestamp": "2025-12-27T08:36:18.780538+00:00",
        "meta_object_name": "COSMOS 2251 DEB",
        "meta_object_id": "1993-036AGV",
        "meta_epoch": "2025-12-26T22:31:31.727424",
        "meta_mean_motion": 14.58831972,
        "meta_eccentricity": 0.0067371,
        "meta_inclination": 73.8522,
        "meta_ra_of_asc_node": 339.9271,
        "meta_arg_of_pericenter": 188.6213,
        "meta_mean_anomaly": 202.7364,
        "meta_ephemeris_type": 0,
        "meta_classification_type": "U",
        "meta_norad_cat_id": 35032,
        "meta_element_set_no": 999,
        "meta_rev_at_epoch": 87881,
        "meta_bstar": 0.00091766,
        "meta_mean_motion_dot": 4.401e-05,
        "meta_mean_motion_ddot": 0,
        "tle_line1": "1 35032U 93036AGV 25360.93856166  .00004401  00000+0  91766-3 0  9994",
        "tle_line2": "2 35032  73.8522 339.9271 0067371 188.6213 202.7364 14.58831972878813"
      },
      "geometry": {
        "type": "Point",
        "coordinates": [
          26.054451860012115,
          68.36821708980392
        ]
      }
    },
    {
      "type": "Feature",
      "properties": {
        "norad_id": 35033,
        "name": "COSMOS 2251 DEB",
        "group": "cosmos-2251-debris",
        "lat": 45.86922827553029,
        "lon": 166.2464707538526,
        "alt_km": 727.3828898358988,
        "timestamp": "2025-12-27T08:36:18.780548+00:00",
        "meta_object_name": "COSMOS 2251 DEB",
        "meta_object_id": "1993-036AGW",
        "meta_epoch": "2025-12-19T05:07:27.625152",
        "meta_mean_motion": 14.50959586,
        "meta_eccentricity": 0.001448,
        "meta_inclination": 74.0251,
        "meta_ra_of_asc_node": 164.3945,
        "meta_arg_of_pericenter": 270.8601,
        "meta_mean_anomaly": 89.0901,
        "meta_ephemeris_type": 0,
        "meta_classification_type": "U",
        "meta_norad_cat_id": 35033,
        "meta_element_set_no": 999,
        "meta_rev_at_epoch": 66021,
        "meta_bstar": 0.00048139,
        "meta_mean_motion_dot": 1.877e-05,
        "meta_mean_motion_ddot": 0,
        "tle_line1": "1 35033U 93036AGW 25353.21351418  .00001877  00000+0  48139-3 0  9998",
        "tle_line2": "2 35033  74.0251 164.3945 0014480 270.8601  89.0901 14.50959586660212"
      },
      "geometry": {
        "type": "Point",
        "coordinates": [
          166.2464707538526,
          45.86922827553029
        ]
      }
    },
    {
      "type": "Feature",
      "properties": {
        "norad_id": 35038,
        "name": "COSMOS 2251 DEB",
        "group": "cosmos-2251-debris",
        "lat": 71.27933392942067,
        "lon": 139.12028681561063,
        "alt_km": 819.040503919513,
        "timestamp": "2025-12-27T08:36:18.780558+00:00",
        "meta_object_name": "COSMOS 2251 DEB",
        "meta_object_id": "1993-036AHB",
        "meta_epoch": "2025-12-16T02:43:57.942048",
        "meta_mean_motion": 14.25166694,
        "meta_eccentricity": 0.01140711,
        "meta_inclination": 74.1077,
        "meta_ra_of_asc_node": 36.5236,
        "meta_arg_of_pericenter": 19.3791,
        "meta_mean_anomaly": 9.3469,
        "meta_ephemeris_type": 0,
        "meta_classification_type": "U",
        "meta_norad_cat_id": 35038,
        "meta_element_set_no": 999,
        "meta_rev_at_epoch": 85617,
        "meta_bstar": 0.00096319549,
        "meta_mean_motion_dot": 2.397e-05,
        "meta_mean_motion_ddot": 0,
        "tle_line1": "1 35038U 93036AHB 25350.11386507  .00002397  00000+0  96320-3 0  9999",
        "tle_line2": "2 35038  74.1077  36.5236 0114071  19.3791   9.3469 14.25166694856178"
      },
      "geometry": {
        "type": "Point",
        "coordinates": [
          139.12028681561063,
          71.27933392942067
        ]
      }
    },
    {
      "type": "Feature",
      "properties": {
        "norad_id": 35043,
        "name": "COSMOS 2251 DEB",
        "group": "cosmos-2251-debris",
        "lat": 20.688926133835817,
        "lon": -169.49326016260108,
        "alt_km": 607.7822404085127,
        "timestamp": "2025-12-27T08:36:18.780569+00:00",
        "meta_object_name": "COSMOS 2251 DEB",
        "meta_object_id": "1993-036AHG",
        "meta_epoch": "2025-12-26T18:53:03.575616",
        "meta_mean_motion": 14.77645294,
        "meta_eccentricity": 0.00948894,
        "meta_inclination": 73.9519,
        "meta_ra_of_asc_node": 17.8748,
        "meta_arg_of_pericenter": 224.707,
        "meta_mean_anomaly": 134.6429,
        "meta_ephemeris_type": 0,
        "meta_classification_type": "U",
        "meta_norad_cat_id": 35043,
        "meta_element_set_no": 999,
        "meta_rev_at_epoch": 67626,
        "meta_bstar": 0.0032488799,
        "meta_mean_motion_dot": 0.00025114,
        "meta_mean_motion_ddot": 0,
        "tle_line1": "1 35043U 93036AHG 25360.78684694  .00025114  00000+0  32489-2 0  9994",
        "tle_line2": "2 35043  73.9519  17.8748 0094889 224.7070 134.6429 14.77645294676261"
      },
      "geometry": {
        "type": "Point",
        "coordinates": [
          -169.49326016260108,
          20.688926133835817
        ]
      }
    }
  ]
}